STARLINK-33884          
1 63770U 25089V   25304.63875838  .00032931  00000+0  11998-2 0  9996
2 63770  43.0053  53.8071 0001255 282.8294  77.2418 15.27609732 29172
STARLINK-33841          
1 63771U 25089W   25304.71185222  .00042120  00000+0  15297-2 0  9994
2 63771  43.0021  53.4964 0001661 268.4884  91.5777 15.27617068 29180
STARLINK-33769          
1 63773U 25089X   25304.70156907  .00042016  00000+0  15260-2 0  9997
2 63773  43.0043  53.4157 0002522 256.8343 103.2227 15.27613917 29223
STARLINK-33914          
1 63774U 25089Y   25304.68919036  .00042266  00000+0  15339-2 0  9999
2 63774  43.0045  49.8205 0003941 242.4113 117.6339 15.27633258 29279
STARLINK-33932          
1 63775U 25091A   25304.68018025  .00047445  00000+0  17208-2 0  9992
2 63775  43.0011  60.9509 0001808 270.0420  90.0224 15.27612969 29219
STARLINK-33930          
1 63776U 25091B   25304.71488150  .00031635  00000+0  11537-2 0  9990
2 63776  42.9963  61.2207 0001376  42.6557 317.4401 15.27594662 29174
STARLINK-33911          
1 63777U 25091C   25304.61192567  .00038879  00000+0  14149-2 0  9993
2 63777  43.0001  54.3365 0000602 300.4545  59.6247 15.27580491 29247
STARLINK-33938          
1 63778U 25091D   25304.69688447  .00057292  00000+0  20726-2 0  9997
2 63778  43.0021  61.0828 0002025 273.6673  86.3947 15.27623411 29269
STARLINK-33881          
1 63779U 25091E   25304.72129110  .00039053  00000+0  14199-2 0  9991
2 63779  43.0078  61.2612 0003210 253.8414 106.2085 15.27607633 29178
STARLINK-33846          
1 63780U 25091F   25304.71102999  .00038709  00000+0  14076-2 0  9999
2 63780  43.0029  61.1853 0002281  21.7467 338.3481 15.27608795 29223
STARLINK-33883          
1 63781U 25091G   25304.70717579  .00034918  00000+0  12715-2 0  9991
2 63781  43.0029  61.1568 0001879  37.1089 322.9892 15.27604465 29179
STARLINK-33842          
1 63782U 25091H   25304.69301443  .00051841  00000+0  18766-2 0  9995
2 63782  42.9990  61.0510 0001926 269.5929  90.4702 15.27641672 29266
STARLINK-33892          
1 63783U 25091J   25304.69174294  .00036185  00000+0  13194-2 0  9992
2 63783  42.9978  61.0393 0001886 264.3408  95.7229 15.27544205 29178
STARLINK-33933          
1 63784U 25091K   25304.75808986  .00041337  00000+0  14997-2 0  9999
2 63784  43.0033  53.7228 0001733 274.7653  85.3001 15.27657048 29371
STARLINK-33906          
1 63785U 25091L   25304.69945440  .00053872  00000+0  19501-2 0  9993
2 63785  43.0025  61.0987 0001763 270.2848  89.7802 15.27627035 29120
STARLINK-33923          
1 63786U 25091M   25304.69816660  .00058708  00000+0  21228-2 0  9997
2 63786  43.0024  61.0902 0002092 275.4882  84.5731 15.27628661 29128
STARLINK-33947          
1 63787U 25091N   25304.72000878  .00046696  00000+0  16937-2 0  9992
2 63787  42.9994  61.2558 0003122 258.0318 102.0184 15.27615270 29173
