[{"OBJECT_NAME":"STARLINK-33884","OBJECT_ID":"2025-089V","EPOCH":"2025-10-31T15:19:48.724032","MEAN_MOTION":15.27609732,"ECCENTRICITY":0.0001255,"INCLINATION":43.0053,"RA_OF_ASC_NODE":53.8071,"ARG_OF_PERICENTER":282.8294,"MEAN_ANOMALY":77.2418,"EPHEMERIS_TYPE":0,"CLASSIFICATION_TYPE":"U","NORAD_CAT_ID":63770,"ELEMENT_SET_NO":999,"REV_AT_EPOCH":2917,"BSTAR":0.0011998,"MEAN_MOTION_DOT":0.00032931,"MEAN_MOTION_DDOT":0},{"OBJECT_NAME":"STARLINK-33841","OBJECT_ID":"2025-089W","EPOCH":"2025-10-31T17:05:04.031808","MEAN_MOTION":15.27617068,"ECCENTRICITY":0.0001661,"INCLINATION":43.0021,"RA_OF_ASC_NODE":53.4964,"ARG_OF_PERICENTER":268.4884,"MEAN_ANOMALY":91.5777,"EPHEMERIS_TYPE":0,"CLASSIFICATION_TYPE":"U","NORAD_CAT_ID":63771,"ELEMENT_SET_NO":999,"REV_AT_EPOCH":2918,"BSTAR":0.0015297,"MEAN_MOTION_DOT":0.0004212,"MEAN_MOTION_DDOT":0},{"OBJECT_NAME":"STARLINK-33769","OBJECT_ID":"2025-089X","EPOCH":"2025-10-31T16:50:15.567648","MEAN_MOTION":15.27613917,"ECCENTRICITY":0.0002522,"INCLINATION":43.0043,"RA_OF_ASC_NODE":53.4157,"ARG_OF_PERICENTER":256.8343,"MEAN_ANOMALY":103.2227,"EPHEMERIS_TYPE":0,"CLASSIFICATION_TYPE":"U","NORAD_CAT_ID":63773,"ELEMENT_SET_NO":999,"REV_AT_EPOCH":2922,"BSTAR":0.001526,"MEAN_MOTION_DOT":0.00042016,"MEAN_MOTION_DDOT":0},{"OBJECT_NAME":"STARLINK-33914","OBJECT_ID":"2025-089Y","EPOCH":"2025-10-31T16:32:26.047104","MEAN_MOTION":15.27633258,"ECCENTRICITY":0.0003941,"INCLINATION":43.0045,"RA_OF_ASC_NODE":49.8205,"ARG_OF_PERICENTER":242.4113,"MEAN_ANOMALY":117.6339,"EPHEMERIS_TYPE":0,"CLASSIFICATION_TYPE":"U","NORAD_CAT_ID":63774,"ELEMENT_SET_NO":999,"REV_AT_EPOCH":2927,"BSTAR":0.0015339,"MEAN_MOTION_DOT":0.00042266,"MEAN_MOTION_DDOT":0},{"OBJECT_NAME":"STARLINK-33932","OBJECT_ID":"2025-091A","EPOCH":"2025-10-31T16:19:27.573600","MEAN_MOTION":15.27612969,"ECCENTRICITY":0.0001808,"INCLINATION":43.0011,"RA_OF_ASC_NODE":60.9509,"ARG_OF_PERICENTER":270.042,"MEAN_ANOMALY":90.0224,"EPHEMERIS_TYPE":0,"CLASSIFICATION_TYPE":"U","NORAD_CAT_ID":63775,"ELEMENT_SET_NO":999,"REV_AT_EPOCH":2921,"BSTAR":0.0017208,"MEAN_MOTION_DOT":0.00047445,"MEAN_MOTION_DDOT":0},{"OBJECT_NAME":"STARLINK-33930","OBJECT_ID":"2025-091B","EPOCH":"2025-10-31T17:09:25.761600","MEAN_MOTION":15.27594662,"ECCENTRICITY":0.0001376,"INCLINATION":42.9963,"RA_OF_ASC_NODE":61.2207,"ARG_OF_PERICENTER":42.6557,"MEAN_ANOMALY":317.4401,"EPHEMERIS_TYPE":0,"CLASSIFICATION_TYPE":"U","NORAD_CAT_ID":63776,"ELEMENT_SET_NO":999,"REV_AT_EPOCH":2917,"BSTAR":0.0011537,"MEAN_MOTION_DOT":0.00031635,"MEAN_MOTION_DDOT":0},{"OBJECT_NAME":"STARLINK-33911","OBJECT_ID":"2025-091C","EPOCH":"2025-10-31T14:41:10.377888","MEAN_MOTION":15.27580491,"ECCENTRICITY":6.02e-5,"INCLINATION":43.0001,"RA_OF_ASC_NODE":54.3365,"ARG_OF_PERICENTER":300.4545,"MEAN_ANOMALY":59.6247,"EPHEMERIS_TYPE":0,"CLASSIFICATION_TYPE":"U","NORAD_CAT_ID":63777,"ELEMENT_SET_NO":999,"REV_AT_EPOCH":2924,"BSTAR":0.0014149,"MEAN_MOTION_DOT":0.00038879,"MEAN_MOTION_DDOT":0},{"OBJECT_NAME":"STARLINK-33938","OBJECT_ID":"2025-091D","EPOCH":"2025-10-31T16:43:30.818208","MEAN_MOTION":15.27623411,"ECCENTRICITY":0.0002025,"INCLINATION":43.0021,"RA_OF_ASC_NODE":61.0828,"ARG_OF_PERICENTER":273.6673,"MEAN_ANOMALY":86.3947,"EPHEMERIS_TYPE":0,"CLASSIFICATION_TYPE":"U","NORAD_CAT_ID":63778,"ELEMENT_SET_NO":999,"REV_AT_EPOCH":2926,"BSTAR":0.0020726,"MEAN_MOTION_DOT":0.00057292,"MEAN_MOTION_DDOT":0},{"OBJECT_NAME":"STARLINK-33881","OBJECT_ID":"2025-091E","EPOCH":"2025-10-31T17:18:39.551040","MEAN_MOTION":15.27607633,"ECCENTRICITY":0.000321,"INCLINATION":43.0078,"RA_OF_ASC_NODE":61.2612,"ARG_OF_PERICENTER":253.8414,"MEAN_ANOMALY":106.2085,"EPHEMERIS_TYPE":0,"CLASSIFICATION_TYPE":"U","NORAD_CAT_ID":63779,"ELEMENT_SET_NO":999,"REV_AT_EPOCH":2917,"BSTAR":0.0014199,"MEAN_MOTION_DOT":0.00039053,"MEAN_MOTION_DDOT":0},{"OBJECT_NAME":"STARLINK-33846","OBJECT_ID":"2025-091F","EPOCH":"2025-10-31T17:03:52.991136","MEAN_MOTION":15.27608795,"ECCENTRICITY":0.0002281,"INCLINATION":43.0029,"RA_OF_ASC_NODE":61.1853,"ARG_OF_PERICENTER":21.7467,"MEAN_ANOMALY":338.3481,"EPHEMERIS_TYPE":0,"CLASSIFICATION_TYPE":"U","NORAD_CAT_ID":63780,"ELEMENT_SET_NO":999,"REV_AT_EPOCH":2922,"BSTAR":0.0014076,"MEAN_MOTION_DOT":0.00038709,"MEAN_MOTION_DDOT":0},{"OBJECT_NAME":"STARLINK-33883","OBJECT_ID":"2025-091G","EPOCH":"2025-10-31T16:58:19.988256","MEAN_MOTION":15.27604465,"ECCENTRICITY":0.0001879,"INCLINATION":43.0029,"RA_OF_ASC_NODE":61.1568,"ARG_OF_PERICENTER":37.1089,"MEAN_ANOMALY":322.9892,"EPHEMERIS_TYPE":0,"CLASSIFICATION_TYPE":"U","NORAD_CAT_ID":63781,"ELEMENT_SET_NO":999,"REV_AT_EPOCH":2917,"BSTAR":0.0012715,"MEAN_MOTION_DOT":0.00034918,"MEAN_MOTION_DDOT":0},{"OBJECT_NAME":"STARLINK-33842","OBJECT_ID":"2025-091H","EPOCH":"2025-10-31T16:37:56.446752","MEAN_MOTION":15.27641672,"ECCENTRICITY":0.0001926,"INCLINATION":42.999,"RA_OF_ASC_NODE":61.051,"ARG_OF_PERICENTER":269.5929,"MEAN_ANOMALY":90.4702,"EPHEMERIS_TYPE":0,"CLASSIFICATION_TYPE":"U","NORAD_CAT_ID":63782,"ELEMENT_SET_NO":999,"REV_AT_EPOCH":2926,"BSTAR":0.0018766,"MEAN_MOTION_DOT":0.00051841,"MEAN_MOTION_DDOT":0},{"OBJECT_NAME":"STARLINK-33892","OBJECT_ID":"2025-091J","EPOCH":"2025-10-31T16:36:06.590016","MEAN_MOTION":15.27544205,"ECCENTRICITY":0.0001886,"INCLINATION":42.9978,"RA_OF_ASC_NODE":61.0393,"ARG_OF_PERICENTER":264.3408,"MEAN_ANOMALY":95.7229,"EPHEMERIS_TYPE":0,"CLASSIFICATION_TYPE":"U","NORAD_CAT_ID":63783,"ELEMENT_SET_NO":999,"REV_AT_EPOCH":2917,"BSTAR":0.0013194,"MEAN_MOTION_DOT":0.00036185,"MEAN_MOTION_DDOT":0},{"OBJECT_NAME":"STARLINK-33933","OBJECT_ID":"2025-091K","EPOCH":"2025-10-31T18:11:38.963904","MEAN_MOTION":15.27657048,"ECCENTRICITY":0.0001733,"INCLINATION":43.0033,"RA_OF_ASC_NODE":53.7228,"ARG_OF_PERICENTER":274.7653,"MEAN_ANOMALY":85.3001,"EPHEMERIS_TYPE":0,"CLASSIFICATION_TYPE":"U","NORAD_CAT_ID":63784,"ELEMENT_SET_NO":999,"REV_AT_EPOCH":2937,"BSTAR":0.0014997,"MEAN_MOTION_DOT":0.00041337,"MEAN_MOTION_DDOT":0},{"OBJECT_NAME":"STARLINK-33906","OBJECT_ID":"2025-091L","EPOCH":"2025-10-31T16:47:12.860160","MEAN_MOTION":15.27627035,"ECCENTRICITY":0.0001763,"INCLINATION":43.0025,"RA_OF_ASC_NODE":61.0987,"ARG_OF_PERICENTER":270.2848,"MEAN_ANOMALY":89.7802,"EPHEMERIS_TYPE":0,"CLASSIFICATION_TYPE":"U","NORAD_CAT_ID":63785,"ELEMENT_SET_NO":999,"REV_AT_EPOCH":2912,"BSTAR":0.0019501,"MEAN_MOTION_DOT":0.00053872,"MEAN_MOTION_DDOT":0},{"OBJECT_NAME":"STARLINK-33923","OBJECT_ID":"2025-091M","EPOCH":"2025-10-31T16:45:21.594240","MEAN_MOTION":15.27628661,"ECCENTRICITY":0.0002092,"INCLINATION":43.0024,"RA_OF_ASC_NODE":61.0902,"ARG_OF_PERICENTER":275.4882,"MEAN_ANOMALY":84.5731,"EPHEMERIS_TYPE":0,"CLASSIFICATION_TYPE":"U","NORAD_CAT_ID":63786,"ELEMENT_SET_NO":999,"REV_AT_EPOCH":2912,"BSTAR":0.0021228,"MEAN_MOTION_DOT":0.00058708,"MEAN_MOTION_DDOT":0},{"OBJECT_NAME":"STARLINK-33947","OBJECT_ID":"2025-091N","EPOCH":"2025-10-31T17:16:48.758592","MEAN_MOTION":15.2761527,"ECCENTRICITY":0.0003122,"INCLINATION":42.9994,"RA_OF_ASC_NODE":61.2558,"ARG_OF_PERICENTER":258.0318,"MEAN_ANOMALY":102.0184,"EPHEMERIS_TYPE":0,"CLASSIFICATION_TYPE":"U","NORAD_CAT_ID":63787,"ELEMENT_SET_NO":999,"REV_AT_EPOCH":2917,"BSTAR":0.0016937,"MEAN_MOTION_DOT":0.00046696,"MEAN_MOTION_DDOT":0}]
